[{"OBJECT_NAME":"GEESAT-5 07","OBJECT_ID":"2025-201G","EPOCH":"2026-03-09T16:52:51.170592","MEAN_MOTION":14.83775124,"ECCENTRICITY":0.0013769,"INCLINATION":49.9868,"RA_OF_ASC_NODE":140.5179,"ARG_OF_PERICENTER":289.0003,"MEAN_ANOMALY":70.9443,"EPHEMERIS_TYPE":0,"CLASSIFICATION_TYPE":"U","NORAD_CAT_ID":65556,"ELEMENT_SET_NO":999,"REV_AT_EPOCH":2702,"BSTAR":0.00035187947,"MEAN_MOTION_DOT":2.721e-5,"MEAN_MOTION_DDOT":0},{"OBJECT_NAME":"AETHER-9","OBJECT_ID":"2026-004T","EPOCH":"2026-03-09T23:31:56.232480","MEAN_MOTION":14.87919538,"ECCENTRICITY":0.00064611,"INCLINATION":97.8002,"RA_OF_ASC_NODE":69.182,"ARG_OF_PERICENTER":98.1292,"MEAN_ANOMALY":262.0657,"EPHEMERIS_TYPE":0,"CLASSIFICATION_TYPE":"U","NORAD_CAT_ID":67380,"ELEMENT_SET_NO":999,"REV_AT_EPOCH":853,"BSTAR":0.00014996524,"MEAN_MOTION_DOT":1.32e-5,"MEAN_MOTION_DDOT":0}]
